STARLINK-30069          
1 56834U 23079M   26067.48212902 -.00002416  00000+0 -80472-4 0  9995
2 56834  42.9986 110.4464 0000469 272.6695  87.4103 15.26726881152740
STARLINK-31498          
1 59189U 24045M   26068.46477257 -.00003866  00000+0 -13098-3 0  9999
2 59189  43.0039  94.0981 0001469 266.7296  93.3388 15.27588531113129
